[{"OBJECT_NAME":"UTMN 2 (RS27S)","OBJECT_ID":"2023-091AP","EPOCH":"2026-03-09T23:09:07.917408","MEAN_MOTION":15.29495965,"ECCENTRICITY":0.00097379,"INCLINATION":97.5194,"RA_OF_ASC_NODE":134.949,"ARG_OF_PERICENTER":76.0788,"MEAN_ANOMALY":284.1534,"EPHEMERIS_TYPE":0,"CLASSIFICATION_TYPE":"U","NORAD_CAT_ID":57203,"ELEMENT_SET_NO":999,"REV_AT_EPOCH":14936,"BSTAR":0.00056135701,"MEAN_MOTION_DOT":0.00016013,"MEAN_MOTION_DDOT":0},{"OBJECT_NAME":"STARLINK-35992","OBJECT_ID":"2025-281E","EPOCH":"2026-03-09T03:26:53.297952","MEAN_MOTION":15.27579202,"ECCENTRICITY":0.00020462,"INCLINATION":43.0051,"RA_OF_ASC_NODE":346.4192,"ARG_OF_PERICENTER":256.9888,"MEAN_ANOMALY":103.0736,"EPHEMERIS_TYPE":0,"CLASSIFICATION_TYPE":"U","NORAD_CAT_ID":66852,"ELEMENT_SET_NO":999,"REV_AT_EPOCH":1610,"BSTAR":0.00092608498,"MEAN_MOTION_DOT":0.00025309,"MEAN_MOTION_DDOT":0}]
